{
  "type": "FeatureCollection",
  "features": [
    {
      "type": "Feature",
      "properties": {
        "norad_id": 66611,
        "name": "STARLINK-35583",
        "group": "last-30-days",
        "lat": 21.675847698115277,
        "lon": -45.09862761253401,
        "alt_km": 411.88219177544397,
        "timestamp": "2025-12-18T07:01:53.340460+00:00",
        "meta_object_name": "STARLINK-35583",
        "meta_object_id": "2025-270Z",
        "meta_epoch": "2025-12-17T19:34:41.987136",
        "meta_mean_motion": 15.50575102,
        "meta_eccentricity": 0.00013643,
        "meta_inclination": 42.999,
        "meta_ra_of_asc_node": 162.9419,
        "meta_arg_of_pericenter": 257.178,
        "meta_mean_anomaly": 102.8928,
        "meta_ephemeris_type": 0,
        "meta_classification_type": "U",
        "meta_norad_cat_id": 66611,
        "meta_element_set_no": 999,
        "meta_rev_at_epoch": 524,
        "meta_bstar": 0.00060506118,
        "meta_mean_motion_dot": 0.00035309,
        "meta_mean_motion_ddot": 0,
        "tle_line1": "1 66611U 25270Z   25351.81576374  .00035309  00000+0  60506-3 0  9992",
        "tle_line2": "2 66611  42.9990 162.9419 0001364 257.1780 102.8928 15.50575102  5243"
      },
      "geometry": {
        "type": "Point",
        "coordinates": [
          -45.09862761253401,
          21.675847698115277
        ]
      }
    },
    {
      "type": "Feature",
      "properties": {
        "norad_id": 66612,
        "name": "STARLINK-36039",
        "group": "last-30-days",
        "lat": -30.371338210185765,
        "lon": 121.65326252015645,
        "alt_km": 445.52894613124863,
        "timestamp": "2025-12-18T07:01:53.340470+00:00",
        "meta_object_name": "STARLINK-36039",
        "meta_object_id": "2025-270AA",
        "meta_epoch": "2025-12-17T20:20:50.661312",
        "meta_mean_motion": 15.40710386,
        "meta_eccentricity": 0.00019821,
        "meta_inclination": 42.999,
        "meta_ra_of_asc_node": 163.1885,
        "meta_arg_of_pericenter": 277.2486,
        "meta_mean_anomaly": 82.8145,
        "meta_ephemeris_type": 0,
        "meta_classification_type": "U",
        "meta_norad_cat_id": 66612,
        "meta_element_set_no": 999,
        "meta_rev_at_epoch": 513,
        "meta_bstar": 0.00062265703,
        "meta_mean_motion_dot": 0.00025804,
        "meta_mean_motion_ddot": 0,
        "tle_line1": "1 66612U 25270AA  25351.84780858  .00025804  00000+0  62266-3 0  9994",
        "tle_line2": "2 66612  42.9990 163.1885 0001982 277.2486  82.8145 15.40710386  5136"
      },
      "geometry": {
        "type": "Point",
        "coordinates": [
          121.65326252015645,
          -30.371338210185765
        ]
      }
    },
    {
      "type": "Feature",
      "properties": {
        "norad_id": 66613,
        "name": "STARLINK-36037",
        "group": "last-30-days",
        "lat": -15.489992134287075,
        "lon": 143.26333296509006,
        "alt_km": 444.99361069092265,
        "timestamp": "2025-12-18T07:01:53.340482+00:00",
        "meta_object_name": "STARLINK-36037",
        "meta_object_id": "2025-270AB",
        "meta_epoch": "2025-12-17T22:00:01.999584",
        "meta_mean_motion": 15.40659722,
        "meta_eccentricity": 0.00014574,
        "meta_inclination": 42.999,
        "meta_ra_of_asc_node": 162.7346,
        "meta_arg_of_pericenter": 275.2865,
        "meta_mean_anomaly": 132.1526,
        "meta_ephemeris_type": 0,
        "meta_classification_type": "U",
        "meta_norad_cat_id": 66613,
        "meta_element_set_no": 999,
        "meta_rev_at_epoch": 523,
        "meta_bstar": 0.0021473159,
        "meta_mean_motion_dot": 0.00090343,
        "meta_mean_motion_ddot": 0,
        "tle_line1": "1 66613U 25270AB  25351.91668981  .00090343  00000+0  21473-2 0  9999",
        "tle_line2": "2 66613  42.9990 162.7346 0001457 275.2865 132.1526 15.40659722  5239"
      },
      "geometry": {
        "type": "Point",
        "coordinates": [
          143.26333296509006,
          -15.489992134287075
        ]
      }
    },
    {
      "type": "Feature",
      "properties": {
        "norad_id": 66614,
        "name": "STARLINK-36040",
        "group": "last-30-days",
        "lat": 42.9700600163629,
        "lon": -111.16672778464653,
        "alt_km": 438.45057853815797,
        "timestamp": "2025-12-18T07:01:53.340493+00:00",
        "meta_object_name": "STARLINK-36040",
        "meta_object_id": "2025-270AC",
        "meta_epoch": "2025-12-17T22:00:01.999584",
        "meta_mean_motion": 15.40641687,
        "meta_eccentricity": 0.00019481,
        "meta_inclination": 42.9996,
        "meta_ra_of_asc_node": 162.4614,
        "meta_arg_of_pericenter": 284.0893,
        "meta_mean_anomaly": 235.2987,
        "meta_ephemeris_type": 0,
        "meta_classification_type": "U",
        "meta_norad_cat_id": 66614,
        "meta_element_set_no": 999,
        "meta_rev_at_epoch": 507,
        "meta_bstar": 0.0021321214,
        "meta_mean_motion_dot": 0.00089641,
        "meta_mean_motion_ddot": 0,
        "tle_line1": "1 66614U 25270AC  25351.91668981  .00089641  00000+0  21321-2 0  9991",
        "tle_line2": "2 66614  42.9996 162.4614 0001948 284.0893 235.2987 15.40641687  5074"
      },
      "geometry": {
        "type": "Point",
        "coordinates": [
          -111.16672778464653,
          42.9700600163629
        ]
      }
    },
    {
      "type": "Feature",
      "properties": {
        "norad_id": 66615,
        "name": "STARLINK-35988",
        "group": "last-30-days",
        "lat": 9.619320296178284,
        "lon": 170.95468711751124,
        "alt_km": 442.79052596975635,
        "timestamp": "2025-12-18T07:01:53.340503+00:00",
        "meta_object_name": "STARLINK-35988",
        "meta_object_id": "2025-270AD",
        "meta_epoch": "2025-12-17T22:00:01.999584",
        "meta_mean_motion": 15.40676339,
        "meta_eccentricity": 0.00014,
        "meta_inclination": 42.9987,
        "meta_ra_of_asc_node": 162.644,
        "meta_arg_of_pericenter": 253.2363,
        "meta_mean_anomaly": 191.4327,
        "meta_ephemeris_type": 0,
        "meta_classification_type": "U",
        "meta_norad_cat_id": 66615,
        "meta_element_set_no": 999,
        "meta_rev_at_epoch": 507,
        "meta_bstar": 0.0021756874,
        "meta_mean_motion_dot": 0.00091606,
        "meta_mean_motion_ddot": 0,
        "tle_line1": "1 66615U 25270AD  25351.91668981  .00091606  00000+0  21757-2 0  9999",
        "tle_line2": "2 66615  42.9987 162.6440 0001400 253.2363 191.4327 15.40676339  5070"
      },
      "geometry": {
        "type": "Point",
        "coordinates": [
          170.95468711751124,
          9.619320296178284
        ]
      }
    },
    {
      "type": "Feature",
      "properties": {
        "norad_id": 66616,
        "name": "STARLINK-35391",
        "group": "last-30-days",
        "lat": 37.774378086788246,
        "lon": -76.04640108768575,
        "alt_km": 434.3703557062863,
        "timestamp": "2025-12-18T07:01:53.340513+00:00",
        "meta_object_name": "STARLINK-35391",
        "meta_object_id": "2025-270AE",
        "meta_epoch": "2025-12-17T21:12:25.727040",
        "meta_mean_motion": 15.43011949,
        "meta_eccentricity": 0.00029767,
        "meta_inclination": 42.9987,
        "meta_ra_of_asc_node": 162.5911,
        "meta_arg_of_pericenter": 227.3338,
        "meta_mean_anomaly": 132.7268,
        "meta_ephemeris_type": 0,
        "meta_classification_type": "U",
        "meta_norad_cat_id": 66616,
        "meta_element_set_no": 999,
        "meta_rev_at_epoch": 525,
        "meta_bstar": -0.022139338,
        "meta_mean_motion_dot": -0.00917951,
        "meta_mean_motion_ddot": 0,
        "tle_line1": "1 66616U 25270AE  25351.88363110 -.00917951  00000+0 -22139-1 0  9998",
        "tle_line2": "2 66616  42.9987 162.5911 0002976 227.3338 132.7268 15.43011949  5251"
      },
      "geometry": {
        "type": "Point",
        "coordinates": [
          -76.04640108768575,
          37.774378086788246
        ]
      }
    },
    {
      "type": "Feature",
      "properties": {
        "norad_id": 66617,
        "name": "STARLINK-35940",
        "group": "last-30-days",
        "lat": 0.8821709598338959,
        "lon": 161.57879138897624,
        "alt_km": 448.33736654882887,
        "timestamp": "2025-12-18T07:01:53.340525+00:00",
        "meta_object_name": "STARLINK-35940",
        "meta_object_id": "2025-271A",
        "meta_epoch": "2025-12-17T22:00:01.999584",
        "meta_mean_motion": 15.39611437,
        "meta_eccentricity": 0.00014878,
        "meta_inclination": 53.1581,
        "meta_ra_of_asc_node": 162.691,
        "meta_arg_of_pericenter": 118.4612,
        "meta_mean_anomaly": 315.9191,
        "meta_ephemeris_type": 0,
        "meta_classification_type": "U",
        "meta_norad_cat_id": 66617,
        "meta_element_set_no": 999,
        "meta_rev_at_epoch": 507,
        "meta_bstar": 0.0021008719,
        "meta_mean_motion_dot": 0.00084547,
        "meta_mean_motion_ddot": 0,
        "tle_line1": "1 66617U 25271A   25351.91668981  .00084547  00000+0  21009-2 0  9998",
        "tle_line2": "2 66617  53.1581 162.6910 0001487 118.4612 315.9191 15.39611437  5070"
      },
      "geometry": {
        "type": "Point",
        "coordinates": [
          161.57879138897624,
          0.8821709598338959
        ]
      }
    }
  ]
}